[
    {
        "Altitude(m)": 604983.0530795609,
        "Argument of Periapsis(deg)": 0.0,
        "Eccentricity": 0.0,
        "Inclination(deg)": 60.0,
        "Latitude(deg)": -0.09274002942347898,
        "Longitude(deg)": -64.91608356439342,
        "Mean Anomaly(deg)": -180.0,
        "RAAN(deg)": 215.0,
        "Satellite Name": "Test1 957",
        "Satellite Number": 957,
        "Semi-Major Axis(m)": 6980739.136638005,
        "Time(s)": 0
    },
    {
        "Altitude(m)": 605055.3331822555,
        "Argument of Periapsis(deg)": 0.00010418945913296404,
        "Eccentricity": 0.0,
        "Inclination(deg)": 60.0,
        "Latitude(deg)": -0.6331498009945997,
        "Longitude(deg)": -64.64795844638826,
        "Mean Anomaly(deg)": -179.37989385453818,
        "RAAN(deg)": 214.99957995086024,
        "Satellite Name": "Test1 957",
        "Satellite Number": 957,
        "Semi-Major Axis(m)": 6980739.136638005,
        "Time(s)": 10
    }
]